"shapeid","x","y","STN_NAM","id","Name","OBJECTID","HYPERLINK","POSTALCODE","ADDRESS","ADDRESSBLO","ADDRESSBUI","ADDRESSPOS","ADDRESSSTR","DESCRIPTIO","PHOTOURL","ADDRESSFLO","ADDRESSUNI","BUS_STOP_N","BUS_ROOF_N","LOC_DESC","IMAGE_PATH","PHOTOCREDI","PAGETITLE","OVERVIEW","EXTERNAL_L","OPENING_HO","HCI_NAME","HCI_TEL","POSTAL_CD","BLK_HSE_NO","FLOOR_NO","UNIT_NO","STREET_NAM","BUILDING_N","CLINIC_PRO","LANDYADDRE","HOUSE_NUMB","LEVEL_NO","STREETNAME","NAME_OF_SC","Type","INFORMATIO","FACILITIES","SCHOOL_NAM"
"0","103.742263234","1.3332090244","JURONG EAST MRT","NULL","NULL","0","NULL","NULL","NULL","NULL","NULL","NULL","NULL","NULL","NULL","NULL","NULL","NULL","NULL","NULL","NULL","NULL","NULL","NULL","NULL","NULL","NULL","NULL","NULL","NULL","NULL","NULL","NULL","NULL","NULL","0.0","NULL","NULL","NULL","NULL","NULL","NULL","NULL","NULL"
"1","103.732558045","1.34240175171","CHINESE GARDEN MRT","1","Chinese Garden","0","NULL","NULL","NULL","NULL","NULL","NULL","NULL","NULL","NULL","NULL","NULL","NULL","NULL","NULL","NULL","NULL","NULL","NULL","NULL","NULL","NULL","NULL","NULL","NULL","NULL","NULL","NULL","NULL","NULL","0.0","NULL","NULL","NULL","NULL","NULL","NULL","NULL","NULL"
"2","103.739259626","1.33156163893","NULL","0","Genting Hotel Jurong","191","NULL","608516","2 Town Hall Link","NULL","NULL","NULL","NULL","NULL","NULL","NULL","NULL","NULL","NULL","NULL","NULL","NULL","NULL","NULL","NULL","NULL","NULL","NULL","NULL","NULL","NULL","NULL","NULL","NULL","NULL","0.0","NULL","NULL","NULL","NULL","NULL","NULL","NULL","NULL"
"3","103.742880867","1.33893637511","NULL","0","ACE @ WORK EDUCARE PTE LTD","62","http://www.childcarelink.gov.sg/ccls/chdcentpart/ChdCentPartLnk.jsp?centreCd=PT4510","NULL","NULL","NULL","NULL","602288","Blk 288B JURONG EAST STREET 21 #01 - 378 SINGAPORE 602288","Child Care Services","NULL","NULL","NULL","NULL","NULL","NULL","NULL","NULL","NULL","NULL","NULL","NULL","NULL","NULL","NULL","NULL","NULL","NULL","NULL","NULL","NULL","0.0","NULL","NULL","NULL","NULL","NULL","NULL","NULL","NULL"
"4","103.745882879","1.328632347","NULL","0","MULBERRY LEARNING CENTRE INTERNATIONAL PTE. LTD.","232","http://www.childcarelink.gov.sg/ccls/chdcentpart/ChdCentPartLnk.jsp?centreCd=PT8706","NULL","NULL","NULL","NULL","609921","31 INTERNATIONAL BUSINESS PARK #01 - 04/05 CREATIVE RESOURCE SINGAPORE 609921","Child Care Services","NULL","NULL","NULL","NULL","NULL","NULL","NULL","NULL","NULL","NULL","NULL","NULL","NULL","NULL","NULL","NULL","NULL","NULL","NULL","NULL","NULL","0.0","NULL","NULL","NULL","NULL","NULL","NULL","NULL","NULL"
"5","103.744879164","1.33183269882","NULL","0","POSSO PRESCHOOL @ BIG BOX PTE. LTD.","264","http://www.childcarelink.gov.sg/ccls/chdcentpart/ChdCentPartLnk.jsp?centreCd=PT9133","NULL","NULL","NULL","NULL","608521","Blk 1 VENTURE AVENUE #04 - 12 SINGAPORE 608521","Child Care Services","NULL","NULL","NULL","NULL","NULL","NULL","NULL","NULL","NULL","NULL","NULL","NULL","NULL","NULL","NULL","NULL","NULL","NULL","NULL","NULL","NULL","0.0","NULL","NULL","NULL","NULL","NULL","NULL","NULL","NULL"
"6","103.748337575","1.32803882612","NULL","0","SAFARI HOUSE BABIES & TODDLERS","267","http://www.childcarelink.gov.sg/ccls/chdcentpart/ChdCentPartLnk.jsp?centreCd=PT9179","NULL","NULL","NULL","NULL","609933","Blk 1A INTERNATIONAL BUSINESS PARK #01 - 01 SINGAPORE 609933","Child Care Services","NULL","NULL","NULL","NULL","NULL","NULL","NULL","NULL","NULL","NULL","NULL","NULL","NULL","NULL","NULL","NULL","NULL","NULL","NULL","NULL","NULL","0.0","NULL","NULL","NULL","NULL","NULL","NULL","NULL","NULL"
"7","103.748331229","1.33102122077","NULL","0","CHERIE HEARTS @ THE CHEVRONS PTE LTD","281","http://www.childcarelink.gov.sg/ccls/chdcentpart/ChdCentPartLnk.jsp?centreCd=WP0740","NULL","NULL","NULL","NULL","609961","Blk 48 BOON LAY WAY #01 - 01 SINGAPORE 609961","Child Care Services","NULL","NULL","NULL","NULL","NULL","NULL","NULL","NULL","NULL","NULL","NULL","NULL","NULL","NULL","NULL","NULL","NULL","NULL","NULL","NULL","NULL","0.0","NULL","NULL","NULL","NULL","NULL","NULL","NULL","NULL"
"8","103.740101374","1.34227314302","NULL","0","CHERIE HEARTS HOLDINGS PTE. LTD.","335","http://www.childcarelink.gov.sg/ccls/chdcentpart/ChdCentPartLnk.jsp?centreCd=PT9022","NULL","NULL","NULL","NULL","600248","Blk 248 JURONG EAST STREET 24 #01 - 72 SINGAPORE 600248","Child Care Services","NULL","NULL","NULL","NULL","NULL","NULL","NULL","NULL","NULL","NULL","NULL","NULL","NULL","NULL","NULL","NULL","NULL","NULL","NULL","NULL","NULL","0.0","NULL","NULL","NULL","NULL","NULL","NULL","NULL","NULL"
"9","103.753538116","1.32749327676","NULL","0","STAR LEARNERS @ JURONG EAST PTE. LTD.","350","http://www.childcarelink.gov.sg/ccls/chdcentpart/ChdCentPartLnk.jsp?centreCd=PT9072","NULL","NULL","NULL","NULL","609964","8 BOON LAY WAY #01 - 24/25 8 @ TRADEHUB 21 SINGAPORE 609964","Child Care Services","NULL","NULL","NULL","NULL","NULL","NULL","NULL","NULL","NULL","NULL","NULL","NULL","NULL","NULL","NULL","NULL","NULL","NULL","NULL","NULL","NULL","0.0","NULL","NULL","NULL","NULL","NULL","NULL","NULL","NULL"
"10","103.746989181","1.32568703678","NULL","0","MULBERRY LEARNING CENTRE @ IBP PTE. LTD.","754","http://www.childcarelink.gov.sg/ccls/chdcentpart/ChdCentPartLnk.jsp?centreCd=PT9036","NULL","NULL","NULL","NULL","609924","27 INTERNATIONAL BUSINESS PARK #01 - 01 IQUEST@IBP SINGAPORE 609924","Child Care Services","NULL","NULL","NULL","NULL","NULL","NULL","NULL","NULL","NULL","NULL","NULL","NULL","NULL","NULL","NULL","NULL","NULL","NULL","NULL","NULL","NULL","0.0","NULL","NULL","NULL","NULL","NULL","NULL","NULL","NULL"
"11","103.742967624","1.34148304661","NULL","0","IYAD-PERDAUS CHILD DEVELOPMENT CENTRE","410","http://www.childcarelink.gov.sg/ccls/chdcentpart/ChdCentPartLnk.jsp?centreCd=RC0820","NULL","NULL","NULL","NULL","600241","Blk 241 JURONG EAST STREET 24 #01 - 659 SINGAPORE 600241","Child Care Services","NULL","NULL","NULL","NULL","NULL","NULL","NULL","NULL","NULL","NULL","NULL","NULL","NULL","NULL","NULL","NULL","NULL","NULL","NULL","NULL","NULL","0.0","NULL","NULL","NULL","NULL","NULL","NULL","NULL","NULL"
"12","103.7527152","1.32857138799","NULL","0","KIDS MANSION CHILDCARE PTE. LTD.","415","http://www.childcarelink.gov.sg/ccls/chdcentpart/ChdCentPartLnk.jsp?centreCd=PT8754","NULL","NULL","NULL","NULL","609966","18 BOON LAY WAY #01 - 131 TRADEHUB 21 SINGAPORE 609966","Child Care Services","NULL","NULL","NULL","NULL","NULL","NULL","NULL","NULL","NULL","NULL","NULL","NULL","NULL","NULL","NULL","NULL","NULL","NULL","NULL","NULL","NULL","0.0","NULL","NULL","NULL","NULL","NULL","NULL","NULL","NULL"
"13","103.741683569","1.33136347175","NULL","0","MINDCHAMPS PRESCHOOL @ JTC SUMMIT PTE. LTD.","504","http://www.childcarelink.gov.sg/ccls/chdcentpart/ChdCentPartLnk.jsp?centreCd=PT8704","NULL","NULL","NULL","NULL","609434","8 JURONG TOWN HALL ROAD #05 - 01 JTC SUMMIT THE SINGAPORE 609434","Child Care Services","NULL","NULL","NULL","NULL","NULL","NULL","NULL","NULL","NULL","NULL","NULL","NULL","NULL","NULL","NULL","NULL","NULL","NULL","NULL","NULL","NULL","0.0","NULL","NULL","NULL","NULL","NULL","NULL","NULL","NULL"
"14","103.748074842","1.33225990236","NULL","0","COLUMBIA ACADEMY PTE LTD","518","http://www.childcarelink.gov.sg/ccls/chdcentpart/ChdCentPartLnk.jsp?centreCd=PT4700","NULL","NULL","NULL","NULL","608838","Blk 10 TOH GUAN ROAD #06 - 03 SINGAPORE 608838","Child Care Services","NULL","NULL","NULL","NULL","NULL","NULL","NULL","NULL","NULL","NULL","NULL","NULL","NULL","NULL","NULL","NULL","NULL","NULL","NULL","NULL","NULL","0.0","NULL","NULL","NULL","NULL","NULL","NULL","NULL","NULL"
"15","103.745882879","1.328632347","NULL","0","CREATIVE O PRESCHOOLERS&#x27; BAY","520","http://www.childcarelink.gov.sg/ccls/chdcentpart/ChdCentPartLnk.jsp?centreCd=WP0310","NULL","NULL","NULL","NULL","609921","31 INTERNATIONAL BUSINESS PARK #02 - 01 CREATIVE RESOURCE SINGAPORE 609921","Child Care Services","NULL","NULL","NULL","NULL","NULL","NULL","NULL","NULL","NULL","NULL","NULL","NULL","NULL","NULL","NULL","NULL","NULL","NULL","NULL","NULL","NULL","0.0","NULL","NULL","NULL","NULL","NULL","NULL","NULL","NULL"
"16","103.736218506","1.33887088241","NULL","0","HAPPY TALENT CHILDCARE CENTRE PTE. LTD.","542","http://www.childcarelink.gov.sg/ccls/chdcentpart/ChdCentPartLnk.jsp?centreCd=PT9083","NULL","NULL","NULL","NULL","600110","Blk 110 JURONG EAST STREET 13 #01 - 318 SINGAPORE 600110","Child Care Services","NULL","NULL","NULL","NULL","NULL","NULL","NULL","NULL","NULL","NULL","NULL","NULL","NULL","NULL","NULL","NULL","NULL","NULL","NULL","NULL","NULL","0.0","NULL","NULL","NULL","NULL","NULL","NULL","NULL","NULL"
"17","103.7527152","1.32857138799","NULL","0","ILHAM CHILD CARE PTE. LTD.","609","http://www.childcarelink.gov.sg/ccls/chdcentpart/ChdCentPartLnk.jsp?centreCd=PT9063","NULL","NULL","NULL","NULL","609966","18 BOON LAY WAY #01 - 121 TRADEHUB 21 SINGAPORE 609966","Child Care Services","NULL","NULL","NULL","NULL","NULL","NULL","NULL","NULL","NULL","NULL","NULL","NULL","NULL","NULL","NULL","NULL","NULL","NULL","NULL","NULL","NULL","0.0","NULL","NULL","NULL","NULL","NULL","NULL","NULL","NULL"
"18","103.737841285","1.34433217094","NULL","0","JUST KIDS @ JURONG PTE. LTD.","618","http://www.childcarelink.gov.sg/ccls/chdcentpart/ChdCentPartLnk.jsp?centreCd=PT8438","NULL","NULL","NULL","NULL","600255","Blk 255 JURONG EAST STREET 24 #01 - 315 SINGAPORE 600255","Child Care Services","NULL","NULL","NULL","NULL","NULL","NULL","NULL","NULL","NULL","NULL","NULL","NULL","NULL","NULL","NULL","NULL","NULL","NULL","NULL","NULL","NULL","0.0","NULL","NULL","NULL","NULL","NULL","NULL","NULL","NULL"
"19","103.74276327","1.33415799489","NULL","0","MY FIRST SKOOL","705","http://www.childcarelink.gov.sg/ccls/chdcentpart/ChdCentPartLnk.jsp?centreCd=NT0545","NULL","NULL","NULL","NULL","608532","3 GATEWAY DRIVE #05 - 02 WESTGATE SINGAPORE 608532","Child Care Services","NULL","NULL","NULL","NULL","NULL","NULL","NULL","NULL","NULL","NULL","NULL","NULL","NULL","NULL","NULL","NULL","NULL","NULL","NULL","NULL","NULL","0.0","NULL","NULL","NULL","NULL","NULL","NULL","NULL","NULL"
"20","103.73938809","1.32329735062","NULL","0","LITTLE FOOTPRINTS SCHOOLHOUSE (TEBAN GARDEN) PTE. LTD.","824","http://www.childcarelink.gov.sg/ccls/chdcentpart/ChdCentPartLnk.jsp?centreCd=PT9012","NULL","NULL","NULL","NULL","601022","Blk 22A TEBAN GARDENS ROAD #01 - 01 SINGAPORE 601022","Child Care Services","NULL","NULL","NULL","NULL","NULL","NULL","NULL","NULL","NULL","NULL","NULL","NULL","NULL","NULL","NULL","NULL","NULL","NULL","NULL","NULL","NULL","0.0","NULL","NULL","NULL","NULL","NULL","NULL","NULL","NULL"
"21","103.749219233","1.32760824373","NULL","0","LEARNING VISION @ WORK PTE. LTD.","859","http://www.childcarelink.gov.sg/ccls/chdcentpart/ChdCentPartLnk.jsp?centreCd=PT8634","NULL","NULL","NULL","NULL","609935","Blk 3A INTERNATIONAL BUSINESS PARK #01 - 07 SINGAPORE 609935","Child Care Services","NULL","NULL","NULL","NULL","NULL","NULL","NULL","NULL","NULL","NULL","NULL","NULL","NULL","NULL","NULL","NULL","NULL","NULL","NULL","NULL","NULL","0.0","NULL","NULL","NULL","NULL","NULL","NULL","NULL","NULL"
"22","103.740093369","1.33782545955","NULL","0","MY FIRST SKOOL","956","http://www.childcarelink.gov.sg/ccls/chdcentpart/ChdCentPartLnk.jsp?centreCd=NT0250","NULL","NULL","NULL","NULL","600209","Blk 209 JURONG EAST ST 21 #01 - 341 SINGAPORE 600209","Child Care Services","NULL","NULL","NULL","NULL","NULL","NULL","NULL","NULL","NULL","NULL","NULL","NULL","NULL","NULL","NULL","NULL","NULL","NULL","NULL","NULL","NULL","0.0","NULL","NULL","NULL","NULL","NULL","NULL","NULL","NULL"
"23","103.747155987","1.33009667057","NULL","0","SAFARI HOUSE PRESCHOOL JURONG","962","http://www.childcarelink.gov.sg/ccls/chdcentpart/ChdCentPartLnk.jsp?centreCd=PT8814","NULL","NULL","NULL","NULL","609930","2 INTERNATIONAL BUSINESS PARK #01 - 08 STRATEGY THE SINGAPORE 609930","Child Care Services","NULL","NULL","NULL","NULL","NULL","NULL","NULL","NULL","NULL","NULL","NULL","NULL","NULL","NULL","NULL","NULL","NULL","NULL","NULL","NULL","NULL","0.0","NULL","NULL","NULL","NULL","NULL","NULL","NULL","NULL"
"24","103.742666857","1.33843639619","NULL","0","PCF SPARKLETOTS PRESCHOOL @ BUKIT BATOK EAST BLK 208 (CC)","992","http://www.childcarelink.gov.sg/ccls/chdcentpart/ChdCentPartLnk.jsp?centreCd=ST0094","NULL","NULL","NULL","NULL","600208","Blk 208 JURONG EAST STREET 21 #01 - 189 SINGAPORE 600208","Child Care Services","NULL","NULL","NULL","NULL","NULL","NULL","NULL","NULL","NULL","NULL","NULL","NULL","NULL","NULL","NULL","NULL","NULL","NULL","NULL","NULL","NULL","0.0","NULL","NULL","NULL","NULL","NULL","NULL","NULL","NULL"
"25","103.746245539","1.34168199595","NULL","0","PCF SPARKLETOTS PRESCHOOL @ BUKIT BATOK EAST BLK 271 (CC)","993","http://www.childcarelink.gov.sg/ccls/chdcentpart/ChdCentPartLnk.jsp?centreCd=ST0060","NULL","NULL","NULL","NULL","600271","Blk 271 TOH GUAN ROAD #01 - 111 SINGAPORE 600271","Child Care Services","NULL","NULL","NULL","NULL","NULL","NULL","NULL","NULL","NULL","NULL","NULL","NULL","NULL","NULL","NULL","NULL","NULL","NULL","NULL","NULL","NULL","0.0","NULL","NULL","NULL","NULL","NULL","NULL","NULL","NULL"
"26","103.744636425","1.33590457027","NULL","0","THE CATERPILLAR&#x27;S COVE PTE. LTD.","1075","http://www.childcarelink.gov.sg/ccls/chdcentpart/ChdCentPartLnk.jsp?centreCd=WP1109","NULL","NULL","NULL","NULL","609607","80 JURONG EAST STREET 21 #03 - 02 DEVAN NAIR INSTITUTE SINGAPORE 609607","Child Care Services","NULL","NULL","NULL","NULL","NULL","NULL","NULL","NULL","NULL","NULL","NULL","NULL","NULL","NULL","NULL","NULL","NULL","NULL","NULL","NULL","NULL","0.0","NULL","NULL","NULL","NULL","NULL","NULL","NULL","NULL"
"27","103.740986924","1.32158738002","NULL","0","PCF SPARKLETOTS PRESCHOOL @ AYER RAJAH BLK 41 (CC)","1116","http://www.childcarelink.gov.sg/ccls/chdcentpart/ChdCentPartLnk.jsp?centreCd=ST0065","NULL","NULL","NULL","NULL","600041","Blk 41 TEBAN GARDENS ROAD #01 - 352 SINGAPORE 600041","Child Care Services","NULL","NULL","NULL","NULL","NULL","NULL","NULL","NULL","NULL","NULL","NULL","NULL","NULL","NULL","NULL","NULL","NULL","NULL","NULL","NULL","NULL","0.0","NULL","NULL","NULL","NULL","NULL","NULL","NULL","NULL"
"28","103.742605875","1.3460546034","NULL","0","PCF SPARKLETOTS PRESCHOOL @ BUKIT BATOK BLK 178 (CC)","1126","http://www.childcarelink.gov.sg/ccls/chdcentpart/ChdCentPartLnk.jsp?centreCd=ST0109","NULL","NULL","NULL","NULL","650178","Blk 178 BUKIT BATOK WEST AVENUE 8 #01 - 217 SINGAPORE 650178","Child Care Services","NULL","NULL","NULL","NULL","NULL","NULL","NULL","NULL","NULL","NULL","NULL","NULL","NULL","NULL","NULL","NULL","NULL","NULL","NULL","NULL","NULL","0.0","NULL","NULL","NULL","NULL","NULL","NULL","NULL","NULL"
"29","103.750270951","1.32480020685","NULL","0","THE KIDZ ZONE PTE LTD","1210","http://www.childcarelink.gov.sg/ccls/chdcentpart/ChdCentPartLnk.jsp?centreCd=WP0743","NULL","NULL","NULL","NULL","609915","9 INTERNATIONAL BUSINESS PARK MIWORLD SINGAPORE 609915","Child Care Services","NULL","NULL","NULL","NULL","NULL","NULL","NULL","NULL","NULL","NULL","NULL","NULL","NULL","NULL","NULL","NULL","NULL","NULL","NULL","NULL","NULL","0.0","NULL","NULL","NULL","NULL","NULL","NULL","NULL","NULL"
"30","103.737014747","1.33828124024","NULL","0","PCF SPARKLETOTS PRESCHOOL @ YUHUA BLK 108 (CC)","1279","http://www.childcarelink.gov.sg/ccls/chdcentpart/ChdCentPartLnk.jsp?centreCd=ST0061","NULL","NULL","NULL","NULL","600108","Blk 108 JURONG EAST STREET 13 #01 - 266 SINGAPORE 600108","Child Care Services","NULL","NULL","NULL","NULL","NULL","NULL","NULL","NULL","NULL","NULL","NULL","NULL","NULL","NULL","NULL","NULL","NULL","NULL","NULL","NULL","NULL","0.0","NULL","NULL","NULL","NULL","NULL","NULL","NULL","NULL"
"31","103.74093153","1.34036433416","NULL","0","PCF SPARKLETOTS PRESCHOOL @ YUHUA BLK 233 (CC)","1280","http://www.childcarelink.gov.sg/ccls/chdcentpart/ChdCentPartLnk.jsp?centreCd=ST0050","NULL","NULL","NULL","NULL","600233","Blk 233 JURONG EAST STREET 21 #01 - 410 SINGAPORE 600233","Child Care Services","NULL","NULL","NULL","NULL","NULL","NULL","NULL","NULL","NULL","NULL","NULL","NULL","NULL","NULL","NULL","NULL","NULL","NULL","NULL","NULL","NULL","0.0","NULL","NULL","NULL","NULL","NULL","NULL","NULL","NULL"
"32","103.741478764","1.34374104677","NULL","0","PCF SPARKLETOTS PRESCHOOL @ YUHUA BLK 264 (CC)","1281","http://www.childcarelink.gov.sg/ccls/chdcentpart/ChdCentPartLnk.jsp?centreCd=ST0051","NULL","NULL","NULL","NULL","600264","Blk 264 JURONG EAST STREET 24 #01 - 523 SINGAPORE 600264","Child Care Services","NULL","NULL","NULL","NULL","NULL","NULL","NULL","NULL","NULL","NULL","NULL","NULL","NULL","NULL","NULL","NULL","NULL","NULL","NULL","NULL","NULL","0.0","NULL","NULL","NULL","NULL","NULL","NULL","NULL","NULL"
"33","103.748007264","1.3351200934","NULL","0","NULL","0","NULL","NULL","NULL","NULL","NULL","NULL","NULL","NULL","NULL","NULL","NULL","28651","B01","OPP IMM BLDG","NULL","NULL","NULL","NULL","NULL","NULL","NULL","NULL","NULL","NULL","NULL","NULL","NULL","NULL","NULL","0.0","NULL","NULL","NULL","NULL","NULL","NULL","NULL","NULL"
"34","103.733185358","1.34248912637","NULL","0","NULL","0","NULL","NULL","NULL","NULL","NULL","NULL","NULL","NULL","NULL","NULL","NULL","28349","B16","OPP CHINESE GDN STN","NULL","NULL","NULL","NULL","NULL","NULL","NULL","NULL","NULL","NULL","NULL","NULL","NULL","NULL","NULL","0.0","NULL","NULL","NULL","NULL","NULL","NULL","NULL","NULL"
"35","103.742913906","1.32388383827","NULL","0","NULL","0","NULL","NULL","NULL","NULL","NULL","NULL","NULL","NULL","NULL","NULL","NULL","20061","B02","AFT JURONG TOWN HALL RD","NULL","NULL","NULL","NULL","NULL","NULL","NULL","NULL","NULL","NULL","NULL","NULL","NULL","NULL","NULL","0.0","NULL","NULL","NULL","NULL","NULL","NULL","NULL","NULL"
"36","103.744903426","1.32752877353","NULL","0","NULL","0","NULL","NULL","NULL","NULL","NULL","NULL","NULL","NULL","NULL","NULL","NULL","28221","B07","OPP INTL BUSINESS PK","NULL","NULL","NULL","NULL","NULL","NULL","NULL","NULL","NULL","NULL","NULL","NULL","NULL","NULL","NULL","0.0","NULL","NULL","NULL","NULL","NULL","NULL","NULL","NULL"
"37","103.73854015","1.33450242758","NULL","0","NULL","0","NULL","NULL","NULL","NULL","NULL","NULL","NULL","NULL","NULL","NULL","NULL","28439","B124","BLK 124","NULL","NULL","NULL","NULL","NULL","NULL","NULL","NULL","NULL","NULL","NULL","NULL","NULL","NULL","NULL","0.0","NULL","NULL","NULL","NULL","NULL","NULL","NULL","NULL"
"38","103.748361702","1.3450167475","NULL","0","NULL","0","NULL","NULL","NULL","NULL","NULL","NULL","NULL","NULL","NULL","NULL","NULL","43511","B07","BT BATOK SWIM CPLX","NULL","NULL","NULL","NULL","NULL","NULL","NULL","NULL","NULL","NULL","NULL","NULL","NULL","NULL","NULL","0.0","NULL","NULL","NULL","NULL","NULL","NULL","NULL","NULL"
"39","103.74420381","1.34046752668","NULL","0","NULL","0","NULL","NULL","NULL","NULL","NULL","NULL","NULL","NULL","NULL","NULL","NULL","28631","B05","OPP BLK 288D","NULL","NULL","NULL","NULL","NULL","NULL","NULL","NULL","NULL","NULL","NULL","NULL","NULL","NULL","NULL","0.0","NULL","NULL","NULL","NULL","NULL","NULL","NULL","NULL"
"40","103.744075545","1.32048550314","NULL","0","NULL","0","NULL","NULL","NULL","NULL","NULL","NULL","NULL","NULL","NULL","NULL","NULL","20209","B02","OPP PANDAN PR SCH","NULL","NULL","NULL","NULL","NULL","NULL","NULL","NULL","NULL","NULL","NULL","NULL","NULL","NULL","NULL","0.0","NULL","NULL","NULL","NULL","NULL","NULL","NULL","NULL"
"41","103.743615969","1.34160223496","NULL","0","NULL","0","NULL","NULL","NULL","NULL","NULL","NULL","NULL","NULL","NULL","NULL","NULL","28621","B07","BLK 241","NULL","NULL","NULL","NULL","NULL","NULL","NULL","NULL","NULL","NULL","NULL","NULL","NULL","NULL","NULL","0.0","NULL","NULL","NULL","NULL","NULL","NULL","NULL","NULL"
"42","103.748179029","1.33069312509","NULL","0","NULL","0","NULL","NULL","NULL","NULL","NULL","NULL","NULL","NULL","NULL","NULL","NULL","28049","B06","OPP THE SYNERGY","NULL","NULL","NULL","NULL","NULL","NULL","NULL","NULL","NULL","NULL","NULL","NULL","NULL","NULL","NULL","0.0","NULL","NULL","NULL","NULL","NULL","NULL","NULL","NULL"
"43","103.737037517","1.33412397666","NULL","0","NULL","0","NULL","NULL","NULL","NULL","NULL","NULL","NULL","NULL","NULL","NULL","NULL","28259","B12","OPP S'PORE SCIENCE CTR","NULL","NULL","NULL","NULL","NULL","NULL","NULL","NULL","NULL","NULL","NULL","NULL","NULL","NULL","NULL","0.0","NULL","NULL","NULL","NULL","NULL","NULL","NULL","NULL"
"44","103.74173827","1.32180773266","NULL","0","NULL","0","NULL","NULL","NULL","NULL","NULL","NULL","NULL","NULL","NULL","NULL","NULL","20211","B03","BLK 41","NULL","NULL","NULL","NULL","NULL","NULL","NULL","NULL","NULL","NULL","NULL","NULL","NULL","NULL","NULL","0.0","NULL","NULL","NULL","NULL","NULL","NULL","NULL","NULL"
"45","103.752357301","1.32720988903","NULL","0","NULL","0","NULL","NULL","NULL","NULL","NULL","NULL","NULL","NULL","NULL","NULL","NULL","28031","B03","BEF THE SYNERGY","NULL","NULL","NULL","NULL","NULL","NULL","NULL","NULL","NULL","NULL","NULL","NULL","NULL","NULL","NULL","0.0","NULL","NULL","NULL","NULL","NULL","NULL","NULL","NULL"
"46","103.732647544","1.34252238279","NULL","0","NULL","0","NULL","NULL","NULL","NULL","NULL","NULL","NULL","NULL","NULL","NULL","NULL","28341","B15","CHINESE GDN STN","NULL","NULL","NULL","NULL","NULL","NULL","NULL","NULL","NULL","NULL","NULL","NULL","NULL","NULL","NULL","0.0","NULL","NULL","NULL","NULL","NULL","NULL","NULL","NULL"
"47","103.743989883","1.34039218106","NULL","0","NULL","0","NULL","NULL","NULL","NULL","NULL","NULL","NULL","NULL","NULL","NULL","NULL","28639","B06","BLK 288E","NULL","NULL","NULL","NULL","NULL","NULL","NULL","NULL","NULL","NULL","NULL","NULL","NULL","NULL","NULL","0.0","NULL","NULL","NULL","NULL","NULL","NULL","NULL","NULL"
"48","103.739082521","1.3361692578","NULL","0","NULL","0","NULL","NULL","NULL","NULL","NULL","NULL","NULL","NULL","NULL","NULL","NULL","28441","B03","SEVENTH-DAY ADVENT CH","NULL","NULL","NULL","NULL","NULL","NULL","NULL","NULL","NULL","NULL","NULL","NULL","NULL","NULL","NULL","0.0","NULL","NULL","NULL","NULL","NULL","NULL","NULL","NULL"
"49","103.744240955","1.32403148788","NULL","0","NULL","0","NULL","NULL","NULL","NULL","NULL","NULL","NULL","NULL","NULL","NULL","NULL","20069","B01","BEF JURONG TOWN HALL RD","NULL","NULL","NULL","NULL","NULL","NULL","NULL","NULL","NULL","NULL","NULL","NULL","NULL","NULL","NULL","0.0","NULL","NULL","NULL","NULL","NULL","NULL","NULL","NULL"
"50","103.734272973","1.33955998756","NULL","0","NULL","0","NULL","NULL","NULL","NULL","NULL","NULL","NULL","NULL","NULL","NULL","NULL","28279","B16","BLK 114","NULL","NULL","NULL","NULL","NULL","NULL","NULL","NULL","NULL","NULL","NULL","NULL","NULL","NULL","NULL","0.0","NULL","NULL","NULL","NULL","NULL","NULL","NULL","NULL"
"51","103.748286834","1.32999610897","NULL","0","NULL","0","NULL","NULL","NULL","NULL","NULL","NULL","NULL","NULL","NULL","NULL","NULL","28041","B05","THE SYNERGY","NULL","NULL","NULL","NULL","NULL","NULL","NULL","NULL","NULL","NULL","NULL","NULL","NULL","NULL","NULL","0.0","NULL","NULL","NULL","NULL","NULL","NULL","NULL","NULL"
"52","103.745472804","1.32164642508","NULL","0","NULL","0","NULL","NULL","NULL","NULL","NULL","NULL","NULL","NULL","NULL","NULL","NULL","20261","B03","AFT PANDAN GDNS","NULL","NULL","NULL","NULL","NULL","NULL","NULL","NULL","NULL","NULL","NULL","NULL","NULL","NULL","NULL","0.0","NULL","NULL","NULL","NULL","NULL","NULL","NULL","NULL"
"53","103.741069553","1.3382634797","NULL","0","NULL","0","NULL","NULL","NULL","NULL","NULL","NULL","NULL","NULL","NULL","NULL","NULL","28311","B05","BLK 209","NULL","NULL","NULL","NULL","NULL","NULL","NULL","NULL","NULL","NULL","NULL","NULL","NULL","NULL","NULL","0.0","NULL","NULL","NULL","NULL","NULL","NULL","NULL","NULL"
"54","103.743402658","1.32124374503","NULL","0","NULL","0","NULL","NULL","NULL","NULL","NULL","NULL","NULL","NULL","NULL","NULL","NULL","20201","B01","TEBAN GDN PO","NULL","NULL","NULL","NULL","NULL","NULL","NULL","NULL","NULL","NULL","NULL","NULL","NULL","NULL","NULL","0.0","NULL","NULL","NULL","NULL","NULL","NULL","NULL","NULL"
"55","103.741730417","1.33850750699","NULL","0","NULL","0","NULL","NULL","NULL","NULL","NULL","NULL","NULL","NULL","NULL","NULL","NULL","28319","B06","BLK 207","NULL","NULL","NULL","NULL","NULL","NULL","NULL","NULL","NULL","NULL","NULL","NULL","NULL","NULL","NULL","0.0","NULL","NULL","NULL","NULL","NULL","NULL","NULL","NULL"
"56","103.739697378","1.33644772192","NULL","0","NULL","0","NULL","NULL","NULL","NULL","NULL","NULL","NULL","NULL","NULL","NULL","NULL","28449","B04","BEF SEVENTH-DAY ADVENT CH","NULL","NULL","NULL","NULL","NULL","NULL","NULL","NULL","NULL","NULL","NULL","NULL","NULL","NULL","NULL","0.0","NULL","NULL","NULL","NULL","NULL","NULL","NULL","NULL"
"57","103.741071251","1.34126651614","NULL","0","NULL","0","NULL","NULL","NULL","NULL","NULL","NULL","NULL","NULL","NULL","NULL","NULL","28321","B01","BLK 239","NULL","NULL","NULL","NULL","NULL","NULL","NULL","NULL","NULL","NULL","NULL","NULL","NULL","NULL","NULL","0.0","NULL","NULL","NULL","NULL","NULL","NULL","NULL","NULL"
"58","103.745672608","1.33234369454","NULL","0","NULL","0","NULL","NULL","NULL","NULL","NULL","NULL","NULL","NULL","NULL","NULL","NULL","28051","B07","AFT JURONG EAST ST 11","NULL","NULL","NULL","NULL","NULL","NULL","NULL","NULL","NULL","NULL","NULL","NULL","NULL","NULL","NULL","0.0","NULL","NULL","NULL","NULL","NULL","NULL","NULL","NULL"
"59","103.744201941","1.34192572651","NULL","0","NULL","0","NULL","NULL","NULL","NULL","NULL","NULL","NULL","NULL","NULL","NULL","NULL","28629","B08","BLK 266","NULL","NULL","NULL","NULL","NULL","NULL","NULL","NULL","NULL","NULL","NULL","NULL","NULL","NULL","NULL","0.0","NULL","NULL","NULL","NULL","NULL","NULL","NULL","NULL"
"60","103.738080044","1.34201974735","NULL","0","NULL","0","NULL","NULL","NULL","NULL","NULL","NULL","NULL","NULL","NULL","NULL","NULL","28331","B03","BLK 229","NULL","NULL","NULL","NULL","NULL","NULL","NULL","NULL","NULL","NULL","NULL","NULL","NULL","NULL","NULL","0.0","NULL","NULL","NULL","NULL","NULL","NULL","NULL","NULL"
"61","103.747727451","1.3345117888","NULL","0","NULL","0","NULL","NULL","NULL","NULL","NULL","NULL","NULL","NULL","NULL","NULL","NULL","28659","B02","IMM BLDG","NULL","NULL","NULL","NULL","NULL","NULL","NULL","NULL","NULL","NULL","NULL","NULL","NULL","NULL","NULL","0.0","NULL","NULL","NULL","NULL","NULL","NULL","NULL","NULL"
"62","103.749408213","1.33665654406","NULL","0","NULL","0","NULL","NULL","NULL","NULL","NULL","NULL","NULL","NULL","NULL","NULL","NULL","28661","B07","MORI SEIKI","NULL","NULL","NULL","NULL","NULL","NULL","NULL","NULL","NULL","NULL","NULL","NULL","NULL","NULL","NULL","0.0","NULL","NULL","NULL","NULL","NULL","NULL","NULL","NULL"
"63","103.737386975","1.3427252185","NULL","0","NULL","0","NULL","NULL","NULL","NULL","NULL","NULL","NULL","NULL","NULL","NULL","NULL","28339","B04","BLK 252","NULL","NULL","NULL","NULL","NULL","NULL","NULL","NULL","NULL","NULL","NULL","NULL","NULL","NULL","NULL","0.0","NULL","NULL","NULL","NULL","NULL","NULL","NULL","NULL"
"64","103.746130084","1.34498713902","NULL","0","NULL","0","NULL","NULL","NULL","NULL","NULL","NULL","NULL","NULL","NULL","NULL","NULL","43691","B01","BLK 190","NULL","NULL","NULL","NULL","NULL","NULL","NULL","NULL","NULL","NULL","NULL","NULL","NULL","NULL","NULL","0.0","NULL","NULL","NULL","NULL","NULL","NULL","NULL","NULL"
"65","103.743077816","1.32975887064","NULL","0","NULL","0","NULL","NULL","NULL","NULL","NULL","NULL","NULL","NULL","NULL","NULL","NULL","28239","B09","OPP JURONG TOWN HALL","NULL","NULL","NULL","NULL","NULL","NULL","NULL","NULL","NULL","NULL","NULL","NULL","NULL","NULL","NULL","0.0","NULL","NULL","NULL","NULL","NULL","NULL","NULL","NULL"
"66","103.745761942","1.33265667261","NULL","0","NULL","0","NULL","NULL","NULL","NULL","NULL","NULL","NULL","NULL","NULL","NULL","NULL","28059","B08","BEF TOH GUAN RD","NULL","NULL","NULL","NULL","NULL","NULL","NULL","NULL","NULL","NULL","NULL","NULL","NULL","NULL","NULL","0.0","NULL","NULL","NULL","NULL","NULL","NULL","NULL","NULL"
"67","103.752292665","1.33720546381","NULL","0","NULL","0","NULL","NULL","NULL","NULL","NULL","NULL","NULL","NULL","NULL","NULL","NULL","28671","B05","ALLIANCE BLDG","NULL","NULL","NULL","NULL","NULL","NULL","NULL","NULL","NULL","NULL","NULL","NULL","NULL","NULL","NULL","0.0","NULL","NULL","NULL","NULL","NULL","NULL","NULL","NULL"
"68","103.734587546","1.34399747158","NULL","0","NULL","0","NULL","NULL","NULL","NULL","NULL","NULL","NULL","NULL","NULL","NULL","NULL","28451","B05","PARC OASIS AVE1","NULL","NULL","NULL","NULL","NULL","NULL","NULL","NULL","NULL","NULL","NULL","NULL","NULL","NULL","NULL","0.0","NULL","NULL","NULL","NULL","NULL","NULL","NULL","NULL"
"69","103.751375622","1.32811788642","NULL","0","NULL","0","NULL","NULL","NULL","NULL","NULL","NULL","NULL","NULL","NULL","NULL","NULL","28039","B04","AFT BOON LAY SUB STN","NULL","NULL","NULL","NULL","NULL","NULL","NULL","NULL","NULL","NULL","NULL","NULL","NULL","NULL","NULL","0.0","NULL","NULL","NULL","NULL","NULL","NULL","NULL","NULL"
"70","103.735017267","1.33644570568","NULL","0","NULL","0","NULL","NULL","NULL","NULL","NULL","NULL","NULL","NULL","NULL","NULL","NULL","28269","B14","BLK 118","NULL","NULL","NULL","NULL","NULL","NULL","NULL","NULL","NULL","NULL","NULL","NULL","NULL","NULL","NULL","0.0","NULL","NULL","NULL","NULL","NULL","NULL","NULL","NULL"
"71","103.738751399","1.32661227658","NULL","0","NULL","0","NULL","NULL","NULL","NULL","NULL","NULL","NULL","NULL","NULL","NULL","NULL","20081","B04","CARRIER S'PORE","NULL","NULL","NULL","NULL","NULL","NULL","NULL","NULL","NULL","NULL","NULL","NULL","NULL","NULL","NULL","0.0","NULL","NULL","NULL","NULL","NULL","NULL","NULL","NULL"
"72","103.738962368","1.33768575793","NULL","0","NULL","0","NULL","NULL","NULL","NULL","NULL","NULL","NULL","NULL","NULL","NULL","NULL","28071","B11","BLK 105","NULL","NULL","NULL","NULL","NULL","NULL","NULL","NULL","NULL","NULL","NULL","NULL","NULL","NULL","NULL","0.0","NULL","NULL","NULL","NULL","NULL","NULL","NULL","NULL"
"73","103.742683803","1.3358474036","NULL","0","NULL","0","NULL","NULL","NULL","NULL","NULL","NULL","NULL","NULL","NULL","NULL","NULL","28061","B09","JURONG EAST STN/INT","NULL","NULL","NULL","NULL","NULL","NULL","NULL","NULL","NULL","NULL","NULL","NULL","NULL","NULL","NULL","0.0","NULL","NULL","NULL","NULL","NULL","NULL","NULL","NULL"
"74","103.738665769","1.33833605959","NULL","0","NULL","0","NULL","NULL","NULL","NULL","NULL","NULL","NULL","NULL","NULL","NULL","NULL","28079","B12","BLK 210","NULL","NULL","NULL","NULL","NULL","NULL","NULL","NULL","NULL","NULL","NULL","NULL","NULL","NULL","NULL","0.0","NULL","NULL","NULL","NULL","NULL","NULL","NULL","NULL"
"75","103.747791527","1.32332097828","NULL","0","NULL","0","NULL","NULL","NULL","NULL","NULL","NULL","NULL","NULL","NULL","NULL","NULL","20059","B21","OPP CYCLE \& CARRIAGE","NULL","NULL","NULL","NULL","NULL","NULL","NULL","NULL","NULL","NULL","NULL","NULL","NULL","NULL","NULL","0.0","NULL","NULL","NULL","NULL","NULL","NULL","NULL","NULL"
"76","103.746011356","1.33905284747","NULL","0","NULL","0","NULL","NULL","NULL","NULL","NULL","NULL","NULL","NULL","NULL","NULL","NULL","28649","B04","BLK 286A","NULL","NULL","NULL","NULL","NULL","NULL","NULL","NULL","NULL","NULL","NULL","NULL","NULL","NULL","NULL","0.0","NULL","NULL","NULL","NULL","NULL","NULL","NULL","NULL"
"77","103.741493346","1.32206279026","NULL","0","NULL","0","NULL","NULL","NULL","NULL","NULL","NULL","NULL","NULL","NULL","NULL","NULL","20219","B04","BEF BLK 11","NULL","NULL","NULL","NULL","NULL","NULL","NULL","NULL","NULL","NULL","NULL","NULL","NULL","NULL","NULL","0.0","NULL","NULL","NULL","NULL","NULL","NULL","NULL","NULL"
"78","103.734859381","1.3362015782","NULL","0","NULL","0","NULL","NULL","NULL","NULL","NULL","NULL","NULL","NULL","NULL","NULL","NULL","28261","B15","AFT S'PORE SCIENCE CTR","NULL","NULL","NULL","NULL","NULL","NULL","NULL","NULL","NULL","NULL","NULL","NULL","NULL","NULL","NULL","0.0","NULL","NULL","NULL","NULL","NULL","NULL","NULL","NULL"
"79","103.735970969","1.34220937628","NULL","0","NULL","0","NULL","NULL","NULL","NULL","NULL","NULL","NULL","NULL","NULL","NULL","NULL","28289","B18","BLK 228","NULL","NULL","NULL","NULL","NULL","NULL","NULL","NULL","NULL","NULL","NULL","NULL","NULL","NULL","NULL","0.0","NULL","NULL","NULL","NULL","NULL","NULL","NULL","NULL"
"80","103.745779439","1.32145766996","NULL","0","NULL","0","NULL","NULL","NULL","NULL","NULL","NULL","NULL","NULL","NULL","NULL","NULL","20269","B04","BEF PANDAN GDNS","NULL","NULL","NULL","NULL","NULL","NULL","NULL","NULL","NULL","NULL","NULL","NULL","NULL","NULL","NULL","0.0","NULL","NULL","NULL","NULL","NULL","NULL","NULL","NULL"
"81","103.742577774","1.33638853072","NULL","0","NULL","0","NULL","NULL","NULL","NULL","NULL","NULL","NULL","NULL","NULL","NULL","NULL","28069","B10","BLK 203","NULL","NULL","NULL","NULL","NULL","NULL","NULL","NULL","NULL","NULL","NULL","NULL","NULL","NULL","NULL","0.0","NULL","NULL","NULL","NULL","NULL","NULL","NULL","NULL"
"82","103.74623097","1.34467324803","NULL","0","NULL","0","NULL","NULL","NULL","NULL","NULL","NULL","NULL","NULL","NULL","NULL","NULL","43699","B02","BLK 298","NULL","NULL","NULL","NULL","NULL","NULL","NULL","NULL","NULL","NULL","NULL","NULL","NULL","NULL","NULL","0.0","NULL","NULL","NULL","NULL","NULL","NULL","NULL","NULL"
"83","103.754353276","1.33734066962","NULL","0","NULL","0","NULL","NULL","NULL","NULL","NULL","NULL","NULL","NULL","NULL","NULL","NULL","28689","B04","OPP TOH GUAN CTR","NULL","NULL","NULL","NULL","NULL","NULL","NULL","NULL","NULL","NULL","NULL","NULL","NULL","NULL","NULL","0.0","NULL","NULL","NULL","NULL","NULL","NULL","NULL","NULL"
"84","103.740474104","1.34145830333","NULL","0","NULL","0","NULL","NULL","NULL","NULL","NULL","NULL","NULL","NULL","NULL","NULL","NULL","28329","B02","BLK 246","NULL","NULL","NULL","NULL","NULL","NULL","NULL","NULL","NULL","NULL","NULL","NULL","NULL","NULL","NULL","0.0","NULL","NULL","NULL","NULL","NULL","NULL","NULL","NULL"
"85","103.733945791","1.339287231","NULL","0","NULL","0","NULL","NULL","NULL","NULL","NULL","NULL","NULL","NULL","NULL","NULL","NULL","28271","B17","OPP BLK 114","NULL","NULL","NULL","NULL","NULL","NULL","NULL","NULL","NULL","NULL","NULL","NULL","NULL","NULL","NULL","0.0","NULL","NULL","NULL","NULL","NULL","NULL","NULL","NULL"
"86","103.73640992","1.34015354908","NULL","0","NULL","0","NULL","NULL","NULL","NULL","NULL","NULL","NULL","NULL","NULL","NULL","NULL","28089","B14","BEF YUHUA CC","NULL","NULL","NULL","NULL","NULL","NULL","NULL","NULL","NULL","NULL","NULL","NULL","NULL","NULL","NULL","0.0","NULL","NULL","NULL","NULL","NULL","NULL","NULL","NULL"
"87","103.739581186","1.33184700097","NULL","0","NULL","0","NULL","NULL","NULL","NULL","NULL","NULL","NULL","NULL","NULL","NULL","NULL","28241","B11","OPP JURONG EAST LIB","NULL","NULL","NULL","NULL","NULL","NULL","NULL","NULL","NULL","NULL","NULL","NULL","NULL","NULL","NULL","0.0","NULL","NULL","NULL","NULL","NULL","NULL","NULL","NULL"
"88","103.735428644","1.34192598858","NULL","0","NULL","0","NULL","NULL","NULL","NULL","NULL","NULL","NULL","NULL","NULL","NULL","NULL","28281","B19","PARC OASIS JURONG TOWN HALL","NULL","NULL","NULL","NULL","NULL","NULL","NULL","NULL","NULL","NULL","NULL","NULL","NULL","NULL","NULL","0.0","NULL","NULL","NULL","NULL","NULL","NULL","NULL","NULL"
"89","103.754928787","1.33716866528","NULL","0","NULL","0","NULL","NULL","NULL","NULL","NULL","NULL","NULL","NULL","NULL","NULL","NULL","28681","B03","TOH GUAN CTR","NULL","NULL","NULL","NULL","NULL","NULL","NULL","NULL","NULL","NULL","NULL","NULL","NULL","NULL","NULL","0.0","NULL","NULL","NULL","NULL","NULL","NULL","NULL","NULL"
"90","103.739462488","1.32251911487","NULL","0","NULL","0","NULL","NULL","NULL","NULL","NULL","NULL","NULL","NULL","NULL","NULL","NULL","20239","B06","AFT HASANAH MQUE","NULL","NULL","NULL","NULL","NULL","NULL","NULL","NULL","NULL","NULL","NULL","NULL","NULL","NULL","NULL","0.0","NULL","NULL","NULL","NULL","NULL","NULL","NULL","NULL"
"91","103.745983713","1.33932016036","NULL","0","NULL","0","NULL","NULL","NULL","NULL","NULL","NULL","NULL","NULL","NULL","NULL","NULL","28641","B03","BLK 284","NULL","NULL","NULL","NULL","NULL","NULL","NULL","NULL","NULL","NULL","NULL","NULL","NULL","NULL","NULL","0.0","NULL","NULL","NULL","NULL","NULL","NULL","NULL","NULL"
"92","103.736575059","1.33956049978","NULL","0","NULL","0","NULL","NULL","NULL","NULL","NULL","NULL","NULL","NULL","NULL","NULL","NULL","28081","B13","BLK 112","NULL","NULL","NULL","NULL","NULL","NULL","NULL","NULL","NULL","NULL","NULL","NULL","NULL","NULL","NULL","0.0","NULL","NULL","NULL","NULL","NULL","NULL","NULL","NULL"
"93","103.739336127","1.32693477419","NULL","0","NULL","0","NULL","NULL","NULL","NULL","NULL","NULL","NULL","NULL","NULL","NULL","NULL","20089","B03","OPP CARRIER S'PORE","NULL","NULL","NULL","NULL","NULL","NULL","NULL","NULL","NULL","NULL","NULL","NULL","NULL","NULL","NULL","0.0","NULL","NULL","NULL","NULL","NULL","NULL","NULL","NULL"
"94","103.747492531","1.32261708089","NULL","0","NULL","0","NULL","NULL","NULL","NULL","NULL","NULL","NULL","NULL","NULL","NULL","NULL","20051","B22","CYCLE & CARRIAGE","NULL","NULL","NULL","NULL","NULL","NULL","NULL","NULL","NULL","NULL","NULL","NULL","NULL","NULL","NULL","0.0","NULL","NULL","NULL","NULL","NULL","NULL","NULL","NULL"
"95","103.736835112","1.34465060526","NULL","0","NULL","0","NULL","NULL","NULL","NULL","NULL","NULL","NULL","NULL","NULL","NULL","NULL","28299","B20","BLK 253","NULL","NULL","NULL","NULL","NULL","NULL","NULL","NULL","NULL","NULL","NULL","NULL","NULL","NULL","NULL","0.0","NULL","NULL","NULL","NULL","NULL","NULL","NULL","NULL"
"96","103.751064519","1.33660193414","NULL","0","NULL","0","NULL","NULL","NULL","NULL","NULL","NULL","NULL","NULL","NULL","NULL","NULL","28679","B06","HITACHI ELEVATOR BLDG","NULL","NULL","NULL","NULL","NULL","NULL","NULL","NULL","NULL","NULL","NULL","NULL","NULL","NULL","NULL","0.0","NULL","NULL","NULL","NULL","NULL","NULL","NULL","NULL"
"97","103.739583801","1.32227303101","NULL","0","NULL","0","NULL","NULL","NULL","NULL","NULL","NULL","NULL","NULL","NULL","NULL","NULL","20231","B05","BEF HASANAH MQUE","NULL","NULL","NULL","NULL","NULL","NULL","NULL","NULL","NULL","NULL","NULL","NULL","NULL","NULL","NULL","0.0","NULL","NULL","NULL","NULL","NULL","NULL","NULL","NULL"
"98","103.736417645","1.32122939622","NULL","0","NULL","0","NULL","NULL","NULL","NULL","NULL","NULL","NULL","NULL","NULL","NULL","NULL","20241","B02","OPP BLK 51","NULL","NULL","NULL","NULL","NULL","NULL","NULL","NULL","NULL","NULL","NULL","NULL","NULL","NULL","NULL","0.0","NULL","NULL","NULL","NULL","NULL","NULL","NULL","NULL"
"99","103.738867545","1.33458100277","NULL","0","NULL","0","NULL","NULL","NULL","NULL","NULL","NULL","NULL","NULL","NULL","NULL","NULL","28431","B134","BLK 134","NULL","NULL","NULL","NULL","NULL","NULL","NULL","NULL","NULL","NULL","NULL","NULL","NULL","NULL","NULL","0.0","NULL","NULL","NULL","NULL","NULL","NULL","NULL","NULL"
"100","103.74592969","1.32526198192","NULL","0","NULL","0","NULL","NULL","NULL","NULL","NULL","NULL","NULL","NULL","NULL","NULL","NULL","28229","B06","GERMAN CTR","NULL","NULL","NULL","NULL","NULL","NULL","NULL","NULL","NULL","NULL","NULL","NULL","NULL","NULL","NULL","0.0","NULL","NULL","NULL","NULL","NULL","NULL","NULL","NULL"
"101","103.74586677","1.32624306794","NULL","0","NULL","0","NULL","NULL","NULL","NULL","NULL","NULL","NULL","NULL","NULL","NULL","NULL","28309","B06A","INTL BUSINESS PK","NULL","NULL","NULL","NULL","NULL","NULL","NULL","NULL","NULL","NULL","NULL","NULL","NULL","NULL","NULL","0.0","NULL","NULL","NULL","NULL","NULL","NULL","NULL","NULL"
"102","103.745560852","1.32503455854","NULL","0","NULL","0","NULL","NULL","NULL","NULL","NULL","NULL","NULL","NULL","NULL","NULL","NULL","20271","B05","OPP GERMAN CTR","NULL","NULL","NULL","NULL","NULL","NULL","NULL","NULL","NULL","NULL","NULL","NULL","NULL","NULL","NULL","0.0","NULL","NULL","NULL","NULL","NULL","NULL","NULL","NULL"
"103","103.739142882","1.33250994187","NULL","0","NULL","0","NULL","NULL","NULL","NULL","NULL","NULL","NULL","NULL","NULL","NULL","NULL","28249","B10","JURONG EAST LIB","NULL","NULL","NULL","NULL","NULL","NULL","NULL","NULL","NULL","NULL","NULL","NULL","NULL","NULL","NULL","0.0","NULL","NULL","NULL","NULL","NULL","NULL","NULL","NULL"
"104","103.736328222","1.3444103358","NULL","0","NULL","0","NULL","NULL","NULL","NULL","NULL","NULL","NULL","NULL","NULL","NULL","NULL","28291","B21","BLK 303","NULL","NULL","NULL","NULL","NULL","NULL","NULL","NULL","NULL","NULL","NULL","NULL","NULL","NULL","NULL","0.0","NULL","NULL","NULL","NULL","NULL","NULL","NULL","NULL"
"105","103.736910162","1.33380673704","NULL","0","NULL","0","NULL","NULL","NULL","NULL","NULL","NULL","NULL","NULL","NULL","NULL","NULL","28251","B13","S'PORE SCIENCE CTR","NULL","NULL","NULL","NULL","NULL","NULL","NULL","NULL","NULL","NULL","NULL","NULL","NULL","NULL","NULL","0.0","NULL","NULL","NULL","NULL","NULL","NULL","NULL","NULL"
"106","103.740408633","1.33474013543","NULL","0","NULL","0","NULL","NULL","NULL","NULL","NULL","NULL","NULL","NULL","NULL","NULL","NULL","28301","B131","BLK 131","NULL","NULL","NULL","NULL","NULL","NULL","NULL","NULL","NULL","NULL","NULL","NULL","NULL","NULL","NULL","0.0","NULL","NULL","NULL","NULL","NULL","NULL","NULL","NULL"
"107","103.749329771","1.33646601692","NULL","0","NULL","0","NULL","NULL","NULL","NULL","NULL","NULL","NULL","NULL","NULL","NULL","NULL","28669","B08","JURONG EAST WAREHSE","NULL","NULL","NULL","NULL","NULL","NULL","NULL","NULL","NULL","NULL","NULL","NULL","NULL","NULL","NULL","0.0","NULL","NULL","NULL","NULL","NULL","NULL","NULL","NULL"
"108","103.741492336","1.33328641269","NULL","0","NULL","0","NULL","NULL","NULL","NULL","NULL","NULL","NULL","NULL","NULL","NULL","NULL","28009","B.INT","JURONG EAST INT - EO","NULL","NULL","NULL","NULL","NULL","NULL","NULL","NULL","NULL","NULL","NULL","NULL","NULL","NULL","NULL","0.0","NULL","NULL","NULL","NULL","NULL","NULL","NULL","NULL"
"109","103.742772331","1.32959816745","NULL","0","NULL","0","NULL","NULL","NULL","NULL","NULL","NULL","NULL","NULL","NULL","NULL","NULL","28231","B09","JURONG TOWN HALL","NULL","NULL","NULL","NULL","NULL","NULL","NULL","NULL","NULL","NULL","NULL","NULL","NULL","NULL","NULL","0.0","NULL","NULL","NULL","NULL","NULL","NULL","NULL","NULL"
"110","103.748216354","1.34520678361","NULL","0","NULL","0","NULL","NULL","NULL","NULL","NULL","NULL","NULL","NULL","NULL","NULL","NULL","NULL","NULL","OPP BT BATOK SWIM CPLX","NULL","NULL","NULL","NULL","NULL","NULL","NULL","NULL","NULL","NULL","NULL","NULL","NULL","NULL","NULL","0.0","NULL","NULL","NULL","NULL","NULL","NULL","NULL","NULL"
"111","103.7377384","1.3434881247","NULL","0","Blk 254 Jurong East Street 24","91","NULL","NULL","NULL","254","NULL","600254","Jurong East Street 24","NULL","NULL","NULL","NULL","NULL","NULL","NULL","NULL","NULL","NULL","NULL","NULL","NULL","NULL","NULL","NULL","NULL","NULL","NULL","NULL","NULL","NULL","0.0","NULL","NULL","NULL","NULL","NULL","NULL","NULL","NULL"
"112","103.742746892","1.32083121375","NULL","0","Blk 37A Teban Gardens Road","98","NULL","NULL","NULL","37A","NULL","601037","Teban Gardens Road","NULL","NULL","NULL","NULL","NULL","NULL","NULL","NULL","NULL","NULL","NULL","NULL","NULL","NULL","NULL","NULL","NULL","NULL","NULL","NULL","NULL","NULL","0.0","NULL","NULL","NULL","NULL","NULL","NULL","NULL","NULL"
"113","103.735872","1.33294999982","NULL","0","NULL","31","NULL","609081","15 Science Centre Road","NULL","NULL","NULL","NULL","NULL","NULL","NULL","NULL","NULL","NULL","NULL","NULL","NULL","Singapore Science Centre","This enlightening attraction holds the largest collection of educational materials devoted to science in Singapore.","http://www.science.edu.sg/Pages/SCBHome.aspx","Science Centre Singapore Daily, 10am me.aspx","NULL","NULL","NULL","NULL","NULL","NULL","NULL","NULL","NULL","0.0","NULL","NULL","NULL","NULL","NULL","NULL","NULL","NULL"
"114","103.73","1.33861100025","NULL","0","NULL","34","NULL","619795","1 Chinese Garden Road","NULL","NULL","NULL","NULL","NULL","NULL","NULL","NULL","NULL","NULL","NULL","www.yoursingapore.com/content/dam/desktop/global/see-do-singapore/nature-wildlife/chinese-garden-carousel01-rect.jpg","Vincent Chong","Chinese Garden Singapore","A tranquil patch of imperial China in the west of Singapore is pleasant respite from the bustle of the city.","http://www.nhb.gov.sg/resources/virtual-exhibitions-and-tours/walking-through-heritage/chinese-garden","Daily, 6am nhb.gov.sg/resources/virtual-exhibitions-and-tours/walking-through-heritage/chinese-garden","NULL","NULL","NULL","NULL","NULL","NULL","NULL","NULL","NULL","0.0","NULL","NULL","NULL","NULL","NULL","NULL","NULL","NULL"
"115","103.743291883","1.33329915697","NULL","0","JEM","0","NULL","NULL","NULL","NULL","NULL","NULL","NULL","NULL","NULL","NULL","NULL","NULL","NULL","NULL","NULL","NULL","NULL","NULL","NULL","NULL","NULL","NULL","NULL","NULL","NULL","NULL","NULL","NULL","NULL","0.0","NULL","NULL","NULL","NULL","NULL","NULL","NULL","NULL"
"116","103.742845226","1.33421349144","NULL","0","Westgate","0","NULL","NULL","NULL","NULL","NULL","NULL","NULL","NULL","NULL","NULL","NULL","NULL","NULL","NULL","NULL","NULL","NULL","NULL","NULL","NULL","NULL","NULL","NULL","NULL","NULL","NULL","NULL","NULL","NULL","0.0","NULL","NULL","NULL","NULL","NULL","NULL","NULL","NULL"
"117","103.746780057","1.33490455797","NULL","0","IMM","0","NULL","NULL","NULL","NULL","NULL","NULL","NULL","NULL","NULL","NULL","NULL","NULL","NULL","NULL","NULL","NULL","NULL","NULL","NULL","NULL","NULL","NULL","NULL","NULL","NULL","NULL","NULL","NULL","NULL","0.0","NULL","NULL","NULL","NULL","NULL","NULL","NULL","NULL"
"118","103.740154653","1.33320347079","NULL","0","jCube","0","NULL","NULL","NULL","NULL","NULL","NULL","NULL","NULL","NULL","NULL","NULL","NULL","NULL","NULL","NULL","NULL","NULL","NULL","NULL","NULL","NULL","NULL","NULL","NULL","NULL","NULL","NULL","NULL","NULL","0.0","NULL","NULL","NULL","NULL","NULL","NULL","NULL","NULL"
"119","103.744823276","1.33172565035","NULL","0","Big Box","0","NULL","NULL","NULL","NULL","NULL","NULL","NULL","NULL","NULL","NULL","NULL","NULL","NULL","NULL","NULL","NULL","NULL","NULL","NULL","NULL","NULL","NULL","NULL","NULL","NULL","NULL","NULL","NULL","NULL","0.0","NULL","NULL","NULL","NULL","NULL","NULL","NULL","NULL"
"120","103.748162565","1.33229445185","NULL","0","The Furniture Mall","0","NULL","NULL","NULL","NULL","NULL","NULL","NULL","NULL","NULL","NULL","NULL","NULL","NULL","NULL","NULL","NULL","NULL","NULL","NULL","NULL","NULL","NULL","NULL","NULL","NULL","NULL","NULL","NULL","NULL","0.0","NULL","NULL","NULL","NULL","NULL","NULL","NULL","NULL"
"121","103.737065907","1.33997286002","NULL","0","Yuhua CC","82","http://one.pa.gov.sg/CRMSPortal/CRMSPortal.portal?_nfpb=true&_st=&_windowLabel=CRMSPortal_1&_urlType=render&_mode=view&wlpCRMSPortal_1_action=CMFPAOrgSelection&wlpCRMSPortal_1_ProgramType=1&_pageLabel=CRMSPortal_page_1","NULL","NULL","90","NULL","609958","Boon Lay Way","Community Club","https://one.pa.gov.sg/CRMSPortal/photos/Common/Photos_of_BU/BU_5980.jpg","NULL","NULL","NULL","NULL","NULL","NULL","NULL","NULL","NULL","NULL","NULL","NULL","NULL","NULL","NULL","NULL","NULL","NULL","NULL","NULL","0.0","NULL","NULL","NULL","NULL","NULL","NULL","NULL","NULL"
"122","103.742763266","1.33415799941","NULL","0","NULL","30","NULL","NULL","NULL","NULL","NULL","NULL","NULL","NULL","NULL","NULL","NULL","NULL","NULL","NULL","NULL","NULL","NULL","NULL","NULL","NULL","HEALTHWAY MEDICAL CLINIC","65606127","608532","3","04","32","Gateway Drive","Westgate","CDMP,CHAS","0.0","NULL","NULL","NULL","NULL","NULL","NULL","NULL","NULL"
"123","103.734609974","1.33921386441","NULL","0","NULL","151","NULL","NULL","NULL","NULL","NULL","NULL","NULL","NULL","NULL","NULL","NULL","NULL","NULL","NULL","NULL","NULL","NULL","NULL","NULL","NULL","JURONG EAST CLINIC","65608004","600114","114","01","406","JURONG EAST ST 13","NULL","CDMP,CHAS,ISP","0.0","NULL","NULL","NULL","NULL","NULL","NULL","NULL","NULL"
"124","103.736785754","1.34318835753","NULL","0","NULL","181","NULL","NULL","NULL","NULL","NULL","NULL","NULL","NULL","NULL","NULL","NULL","NULL","NULL","NULL","NULL","NULL","NULL","NULL","NULL","NULL","FIRST CARE FAMILY CLINIC & SURGERY","64252350","600253","253","01","257","JURONG EAST ST 24","NULL","CDMP,CHAS,ISP","0.0","NULL","NULL","NULL","NULL","NULL","NULL","NULL","NULL"
"125","103.735622182","1.34485611221","NULL","0","NULL","229","NULL","NULL","NULL","NULL","NULL","NULL","NULL","NULL","NULL","NULL","NULL","NULL","NULL","NULL","NULL","NULL","NULL","NULL","NULL","NULL","EASTERN CLINIC AND DENTAL SURGERY","65622941","600303","303","01","92","JURONG EAST ST 32","NULL","CDMP,CHAS","0.0","NULL","NULL","NULL","NULL","NULL","NULL","NULL","NULL"
"126","103.738263367","1.34416527281","NULL","0","NULL","236","NULL","NULL","NULL","NULL","NULL","NULL","NULL","NULL","NULL","NULL","NULL","NULL","NULL","NULL","NULL","NULL","NULL","NULL","NULL","NULL","ESTHER YEO CLINIC","65652822","600256","256","01","389","JURONG EAST ST 24","NULL","CDMP,CHAS,ISP","0.0","NULL","NULL","NULL","NULL","NULL","NULL","NULL","NULL"
"127","103.737623304","1.33658465342","NULL","0","NULL","273","NULL","NULL","NULL","NULL","NULL","NULL","NULL","NULL","NULL","NULL","NULL","NULL","NULL","NULL","NULL","NULL","NULL","NULL","NULL","NULL","E.J. TAN CLINIC & SURGERY","65606600","600104","104","01","100","JURONG EAST ST 13","NULL","CDMP,CHAS,ISP","0.0","NULL","NULL","NULL","NULL","NULL","NULL","NULL","NULL"
"128","103.742159955","1.33997597904","NULL","0","NULL","274","NULL","NULL","NULL","NULL","NULL","NULL","NULL","NULL","NULL","NULL","NULL","NULL","NULL","NULL","NULL","NULL","NULL","NULL","NULL","NULL","EASTERN CLINIC & SURGERY PTE LTD","65614458","600235","235","01","316","JURONG EAST STREET 21","NULL","CDMP,CHAS,ISP","0.0","NULL","NULL","NULL","NULL","NULL","NULL","NULL","NULL"
"129","103.741742087","1.34634407479","NULL","0","NULL","280","NULL","NULL","NULL","NULL","NULL","NULL","NULL","NULL","NULL","NULL","NULL","NULL","NULL","NULL","NULL","NULL","NULL","NULL","NULL","NULL","C H TAN MEDICAL CLINIC & DENTAL SURGERY","65618712","650177","177","01","259","BT BATOK WEST AVE 8","NULL","CDMP,CHAS,ISP","0.0","NULL","NULL","NULL","NULL","NULL","NULL","NULL","NULL"
"130","103.738514478","1.3399332723","NULL","0","NULL","375","NULL","NULL","NULL","NULL","NULL","NULL","NULL","NULL","NULL","NULL","NULL","NULL","NULL","NULL","NULL","NULL","NULL","NULL","NULL","NULL","CITILIFE FAMILY CLINIC","65662281","600215","215","01","539","JURONG EAST ST 21","NULL","CDMP,CHAS,ISP","0.0","NULL","NULL","NULL","NULL","NULL","NULL","NULL","NULL"
"131","103.739676885","1.33382540752","NULL","0","NULL","480","NULL","NULL","NULL","NULL","NULL","NULL","NULL","NULL","NULL","NULL","NULL","NULL","NULL","NULL","NULL","NULL","NULL","NULL","NULL","NULL","SATA CommHealth Jurong Medical Centre","62446626","600135","135","04","345","Jurong Gateway Road","NULL","CDMP,CHAS","0.0","NULL","NULL","NULL","NULL","NULL","NULL","NULL","NULL"
"132","103.740177519","1.33451257367","NULL","0","NULL","526","NULL","NULL","NULL","NULL","NULL","NULL","NULL","NULL","NULL","NULL","NULL","NULL","NULL","NULL","NULL","NULL","NULL","NULL","NULL","NULL","RafflesMedical","68996688","600131","131","01","267","Jurong Gateway Road","NULL","CHAS","0.0","NULL","NULL","NULL","NULL","NULL","NULL","NULL","NULL"
"133","103.738292804","1.32213636289","NULL","0","NULL","540","NULL","NULL","NULL","NULL","NULL","NULL","NULL","NULL","NULL","NULL","NULL","NULL","NULL","NULL","NULL","NULL","NULL","NULL","NULL","NULL","NEWLIFE FAMILY CLINIC & SURGERY","65663770","600061","61","01","20","TEBAN GARDENS ROAD","NULL","CDMP,CHAS,ISP","0.0","NULL","NULL","NULL","NULL","NULL","NULL","NULL","NULL"
"134","103.738292804","1.32213636289","NULL","0","NULL","586","NULL","NULL","NULL","NULL","NULL","NULL","NULL","NULL","NULL","NULL","NULL","NULL","NULL","NULL","NULL","NULL","NULL","NULL","NULL","NULL","TEBAN GARDEN CLINIC","65619052","600061","61","01","01","TEBAN GARDENS RD","NULL","CDMP,CHAS,ISP","0.0","NULL","NULL","NULL","NULL","NULL","NULL","NULL","NULL"
"135","103.738292804","1.32213636289","NULL","0","NULL","606","NULL","NULL","NULL","NULL","NULL","NULL","NULL","NULL","NULL","NULL","NULL","NULL","NULL","NULL","NULL","NULL","NULL","NULL","NULL","NULL","The New Teban Clinic","65663770","600061","61","01","20","TEBAN GARDENS ROAD","NULL","CDMP,CHAS,ISP","0.0","NULL","NULL","NULL","NULL","NULL","NULL","NULL","NULL"
"136","103.73925969","1.34256242272","NULL","0","NULL","636","NULL","NULL","NULL","NULL","NULL","NULL","NULL","NULL","NULL","NULL","NULL","NULL","NULL","NULL","NULL","NULL","NULL","NULL","NULL","NULL","WU CLINIC & SURGERY","65611672","600249","249","01","78","JURONG EAST ST 24","NULL","CDMP,CHAS,ISP","0.0","NULL","NULL","NULL","NULL","NULL","NULL","NULL","NULL"
"137","103.744937236","1.34155988951","NULL","0","NULL","674","NULL","NULL","NULL","NULL","NULL","NULL","NULL","NULL","NULL","NULL","NULL","NULL","NULL","NULL","NULL","NULL","NULL","NULL","NULL","NULL","TOH GUAN FAMILY CLINIC","65666966","601267","267A","01","02","TOH GUAN ROAD","NULL","CDMP,CHAS,ISP","0.0","NULL","NULL","NULL","NULL","NULL","NULL","NULL","NULL"
"138","103.739542132","1.32448885438","NULL","0","Singapore Coins & Notes Museum","1","http://www.singaporecoinsandnotesmuseum.com/the_news.php","NULL","NULL","NULL","NULL","NULL","NULL","[Currently undergoing revamp & relocating] The Singapore Coins and Notes Museum, is Singapore first and only museum dedicated to displaying currency.","http://www.museums.com.sg/~/media/mrt/about%20us%20images/singapore%20coins.jpg","NULL","NULL","NULL","NULL","NULL","NULL","NULL","NULL","NULL","NULL","NULL","NULL","NULL","NULL","NULL","NULL","NULL","NULL","NULL","NULL","34080.9626","NULL","NULL","NULL","NULL","NULL","NULL","NULL","NULL"
"139","103.739371389","1.3337534329","NULL","0","NULL","1","http://www.nyschool.edu.sg","600135","NULL","NULL","NULL","NULL","NULL","Private Education Institutions","NULL","NULL","NULL","NULL","NULL","NULL","NULL","NULL","NULL","NULL","NULL","NULL","NULL","NULL","NULL","NULL","NULL","333","NULL","NULL","NULL","0.0","135","3","JURONG GATEWAY ROAD","NANYANG LANGUAGE & BUSINESS SCHOOL","NULL","NULL","NULL","NULL"
"140","103.744636425","1.33590457027","NULL","0","NULL","35","http://www.hmi-ihs.com","609607","NULL","NULL","NULL","NULL","NULL","Private Education Institutions","NULL","NULL","NULL","NULL","NULL","NULL","NULL","NULL","NULL","NULL","NULL","NULL","NULL","NULL","NULL","NULL","NULL","3","NULL","DEVAN NAIR INSTITUTE FOR EMPLOYMENT & EMPLOYABILIT","NULL","0.0","80","6","JURONG EAST STREET 21","HMI INSTITUTE OF HEALTH SCIENCES","NULL","NULL","NULL","NULL"
"141","103.741683569","1.33136347175","NULL","0","NULL","49","http://www.icnacademy.com/","609434","NULL","NULL","NULL","NULL","NULL","Private Education Institutions","NULL","NULL","NULL","NULL","NULL","NULL","NULL","NULL","NULL","NULL","NULL","NULL","NULL","NULL","NULL","NULL","NULL","1","NULL","JTC SUMMIT","NULL","0.0","8","3","JURONG TOWN HALL ROAD","ICN ACADEMY","NULL","NULL","NULL","NULL"
"142","103.738708272","1.3338624636","NULL","0","NULL","67","http://www.jegroup.edu.sg","600134","NULL","NULL","NULL","NULL","NULL","Private Education Institutions","NULL","NULL","NULL","NULL","NULL","NULL","NULL","NULL","NULL","NULL","NULL","NULL","NULL","NULL","NULL","NULL","NULL","307L","NULL","NULL","NULL","0.0","134","4","JURONG GATEWAY ROAD","JE EDUCATIONAL COLLEGE","NULL","NULL","NULL","NULL"
"143","103.738708272","1.3338624636","NULL","0","NULL","69","http://www.ja.edu.sg/","600134","NULL","NULL","NULL","NULL","NULL","Private Education Institutions","NULL","NULL","NULL","NULL","NULL","NULL","NULL","NULL","NULL","NULL","NULL","NULL","NULL","NULL","NULL","NULL","NULL","307L","NULL","NULL","NULL","0.0","134","3","JURONG GATEWAY ROAD","JURONG ACADEMY","NULL","NULL","NULL","NULL"
"144","103.739371389","1.3337534329","NULL","0","NULL","89","http://www.singapore-nei.com","600135","NULL","NULL","NULL","NULL","NULL","Private Education Institutions","NULL","NULL","NULL","NULL","NULL","NULL","NULL","NULL","NULL","NULL","NULL","NULL","NULL","NULL","NULL","NULL","NULL","343","NULL","NULL","NULL","0.0","135","4","JURONG GATEWAY ROAD","NANYANG EDUCATION INSTITUTE","NULL","NULL","NULL","NULL"
"145","103.739371389","1.3337534329","NULL","0","NULL","100","http://www.smartlearners.edu.sg","600135","NULL","NULL","NULL","NULL","NULL","Private Education Institutions","NULL","NULL","NULL","NULL","NULL","NULL","NULL","NULL","NULL","NULL","NULL","NULL","NULL","NULL","NULL","NULL","NULL","NULL","NULL","NULL","NULL","0.0","135","4","JURONG EAST STREET 13","SMART LEARNERS EDUCATION CENTRE","NULL","NULL","NULL","NULL"
"146","103.739371389","1.3337534329","NULL","0","NULL","101","http://www.soaacademyonline.com","600135","NULL","NULL","NULL","NULL","NULL","Private Education Institutions","NULL","NULL","NULL","NULL","NULL","NULL","NULL","NULL","NULL","NULL","NULL","NULL","NULL","NULL","NULL","NULL","NULL","333","NULL","NULL","NULL","0.0","135","3","JURONG GATEWAY ROAD","SOA ACADEMY","NULL","NULL","NULL","NULL"
"147","103.739371389","1.3337534329","NULL","0","NULL","104","http://www.spring.edu.sg","600135","NULL","NULL","NULL","NULL","NULL","Private Education Institutions","NULL","NULL","NULL","NULL","NULL","NULL","NULL","NULL","NULL","NULL","NULL","NULL","NULL","NULL","NULL","NULL","NULL","329","NULL","NULL","NULL","0.0","BLK 135","3","JURONG GATEWAY ROAD","SPRING COLLEGE INTERNATIONAL","NULL","NULL","NULL","NULL"
"148","103.740166667","1.33464850178","NULL","0","NULL","108","http://www.sthua.edu.sg","600131","NULL","NULL","NULL","NULL","NULL","Private Education Institutions","NULL","NULL","NULL","NULL","NULL","NULL","NULL","NULL","NULL","NULL","NULL","NULL","NULL","NULL","NULL","NULL","NULL","241","NULL","NULL","NULL","0.0","131","4","JURONG GATEWAY ROAD","ST.HUA PRIVATE SCHOOL","NULL","NULL","NULL","NULL"
"149","103.744636425","1.33590457027","NULL","0","NULL","140","http://www.wavelink.com.sg/wmi/","609607","NULL","NULL","NULL","NULL","NULL","Private Education Institutions","NULL","NULL","NULL","NULL","NULL","NULL","NULL","NULL","NULL","NULL","NULL","NULL","NULL","NULL","NULL","NULL","NULL","4","NULL","DEVAN NAIR INSTITUTE","NULL","0.0","80","6","JURONG EAST STREET 21","WAVELINK MARITIME INSTITUTE","NULL","NULL","NULL","NULL"
"150","103.738708272","1.3338624636","NULL","0","NULL","183","http://www.aprotraining.sg","600134","NULL","NULL","NULL","NULL","NULL","Private Education Institutions","NULL","NULL","NULL","NULL","NULL","NULL","NULL","NULL","NULL","NULL","NULL","NULL","NULL","NULL","NULL","NULL","NULL","309A","NULL","NULL","NULL","0.0","134","4","JURONG GATEWAY ROAD","APRO TRAINING CENTRE","NULL","NULL","NULL","NULL"
"151","103.744636425","1.33590457027","NULL","0","NULL","231","http://www.seraphcorp.net","609607","NULL","NULL","NULL","NULL","NULL","Private Education Institutions","NULL","NULL","NULL","NULL","NULL","NULL","NULL","NULL","NULL","NULL","NULL","NULL","NULL","NULL","NULL","NULL","NULL","1","NULL","DEVAN NAIR INSTITUTE","NULL","0.0","80","6","JURONG EAST STREET 21","SERAPHCORP INSTITUTE","NULL","NULL","NULL","NULL"
"152","103.750058415","1.34371302615","NULL","0","NULL","258","http://www.shatec.sg","659589","NULL","NULL","NULL","NULL","NULL","Private Education Institutions","NULL","NULL","NULL","NULL","NULL","NULL","NULL","NULL","NULL","NULL","NULL","NULL","NULL","NULL","NULL","NULL","NULL","NULL","NULL","NULL","NULL","0.0","21","NULL","BUKIT BATOK STREET 22","SHATEC INSTITUTES","NULL","NULL","NULL","NULL"
"153","103.741683569","1.33136347175","NULL","0","NULL","282","http://www.parenthesis.edu.sg","609434","NULL","NULL","NULL","NULL","NULL","Private Education Institutions","NULL","NULL","NULL","NULL","NULL","NULL","NULL","NULL","NULL","NULL","NULL","NULL","NULL","NULL","NULL","NULL","NULL","2","NULL","THE JTC SUMMIT","NULL","0.0","8","24","JURONG TOWN HALL ROAD","PARENTHESIS ACADEMY","NULL","NULL","NULL","NULL"
"154","103.739242871","1.33289451521","NULL","0","Jurong Regional Library","15","http://www.nlb.gov.sg/VisitUs/BranchDetails/tabid/140/bid/338/Default.aspx?branch=Jurong+Regional+Library","NULL","NULL","21","NULL","609732","Jurong East Central 1","JRL","http://www.nlb.gov.sg/Portals/0/library/gallery/JurongReg/MAIN-JRL-cropped.jpg","NULL","NULL","NULL","NULL","NULL","NULL","NULL","NULL","NULL","NULL","NULL","NULL","NULL","NULL","NULL","NULL","NULL","NULL","NULL","NULL","0.0","NULL","NULL","NULL","NULL","NULL","NULL","NULL","NULL"
"155","103.746191327","1.32128015068","NULL","1","Calvary Pandan Bible-Presbyterian Church","0","NULL","NULL","NULL","NULL","NULL","NULL","NULL","NULL","NULL","NULL","NULL","NULL","NULL","NULL","NULL","NULL","NULL","NULL","NULL","NULL","NULL","NULL","NULL","NULL","NULL","NULL","NULL","NULL","NULL","0.0","NULL","NULL","NULL","NULL","C","NULL","NULL","NULL"
"156","103.746184197","1.32175775891","NULL","2","Galilee Bible-Presbyterian Church","0","NULL","NULL","NULL","NULL","NULL","NULL","NULL","NULL","NULL","NULL","NULL","NULL","NULL","NULL","NULL","NULL","NULL","NULL","NULL","NULL","NULL","NULL","NULL","NULL","NULL","NULL","NULL","NULL","NULL","0.0","NULL","NULL","NULL","NULL","C","NULL","NULL","NULL"
"157","103.74152806","1.33917970347","NULL","3","Masjid Almukminin Mosque","0","NULL","NULL","NULL","NULL","NULL","NULL","NULL","NULL","NULL","NULL","NULL","NULL","NULL","NULL","NULL","NULL","NULL","NULL","NULL","NULL","NULL","NULL","NULL","NULL","NULL","NULL","NULL","NULL","NULL","0.0","NULL","NULL","NULL","NULL","M","NULL","NULL","NULL"
"158","103.738675909","1.34141090105","NULL","4","Sri Arulmigu Murugan Temple","0","NULL","NULL","NULL","NULL","NULL","NULL","NULL","NULL","NULL","NULL","NULL","NULL","NULL","NULL","NULL","NULL","NULL","NULL","NULL","NULL","NULL","NULL","NULL","NULL","NULL","NULL","NULL","NULL","NULL","0.0","NULL","NULL","NULL","NULL","B","NULL","NULL","NULL"
"159","103.746556729","1.33274630341","NULL","1","Jurong Community Hospital","0","NULL","NULL","NULL","NULL","NULL","NULL","NULL","NULL","NULL","NULL","NULL","NULL","NULL","NULL","NULL","NULL","NULL","NULL","NULL","NULL","NULL","NULL","NULL","NULL","NULL","NULL","NULL","NULL","NULL","0.0","NULL","NULL","NULL","NULL","NULL","NULL","NULL","NULL"
"160","103.745482626","1.33344800214","NULL","2","Ng Teng Fong General Hospital","0","NULL","NULL","NULL","NULL","NULL","NULL","NULL","NULL","NULL","NULL","NULL","NULL","NULL","NULL","NULL","NULL","NULL","NULL","NULL","NULL","NULL","NULL","NULL","NULL","NULL","NULL","NULL","NULL","NULL","0.0","NULL","NULL","NULL","NULL","NULL","NULL","NULL","NULL"
"161","103.743421593","1.34644311212","NULL","0","Fei Yue Neighbourhood Link (Bukit Batok)","3","NULL","NULL","NULL","NULL","NULL","650183","Blk 183 Bukit Batok West Avenue 8 #01-101 Singapore","NULL","NULL","NULL","NULL","NULL","NULL","NULL","NULL","NULL","NULL","NULL","NULL","NULL","NULL","NULL","NULL","NULL","NULL","NULL","NULL","NULL","NULL","0.0","NULL","NULL","NULL","NULL","NULL","NULL","NULL","NULL"
"162","103.747635905","1.32130130011","NULL","0","St Luke's Eldercare Ltd (Ayer Rajah)","52","NULL","NULL","NULL","NULL","NULL","609342","150A Pandan Gardens Singapore","NULL","NULL","NULL","NULL","NULL","NULL","NULL","NULL","NULL","NULL","NULL","NULL","NULL","NULL","NULL","NULL","NULL","NULL","NULL","NULL","NULL","NULL","0.0","NULL","NULL","NULL","NULL","NULL","NULL","NULL","NULL"
"163","103.738825039","1.33868396439","NULL","0","Loving Heart Multi-Service Centre","83","NULL","NULL","NULL","NULL","NULL","600210","Blk 210 Jurong East Street 21 #01-389 Singapore","NULL","NULL","NULL","NULL","NULL","NULL","NULL","NULL","NULL","NULL","NULL","NULL","NULL","NULL","NULL","NULL","NULL","NULL","NULL","NULL","NULL","NULL","0.0","NULL","NULL","NULL","NULL","NULL","NULL","NULL","NULL"
"164","103.736754205","1.34137214989","NULL","0","PCF SPARKLETOTS PRESCHOOL @ YUHUA Blk 223A (KN","136","NULL","NULL","NULL","NULL","NULL","601223","223A Jurong East Street 21 #01-851","Kindergartens","NULL","NULL","NULL","NULL","NULL","NULL","NULL","NULL","NULL","NULL","NULL","NULL","NULL","NULL","NULL","NULL","NULL","NULL","NULL","NULL","NULL","0.0","NULL","NULL","NULL","NULL","NULL","NULL","NULL","NULL"
"165","103.739676494","1.34316585351","NULL","0","PCF SPARKLETOTS PRESCHOOL @ YUHUA Blk 251 (KN","137","NULL","NULL","NULL","NULL","NULL","600251","251 Jurong East Street 24 #01-110","Kindergartens","NULL","NULL","NULL","NULL","NULL","NULL","NULL","NULL","NULL","NULL","NULL","NULL","NULL","NULL","NULL","NULL","NULL","NULL","NULL","NULL","NULL","0.0","NULL","NULL","NULL","NULL","NULL","NULL","NULL","NULL"
"166","103.742666857","1.33843639619","NULL","0","PCF SPARKLETOTS PRESCHOOL @ BUKIT BATOK EAST Blk 208","238","NULL","NULL","NULL","NULL","NULL","600208","208 Jurong East Street 21 #01-183","Kindergartens","NULL","NULL","NULL","NULL","NULL","NULL","NULL","NULL","NULL","NULL","NULL","NULL","NULL","NULL","NULL","NULL","NULL","NULL","NULL","NULL","NULL","0.0","NULL","NULL","NULL","NULL","NULL","NULL","NULL","NULL"
"167","103.746228331","1.3217698586","NULL","0","Galilee Kindergarten","380","NULL","NULL","NULL","NULL","NULL","609338","202 Pandan Gardens","Kindergartens","NULL","NULL","NULL","NULL","NULL","NULL","NULL","NULL","NULL","NULL","NULL","NULL","NULL","NULL","NULL","NULL","NULL","NULL","NULL","NULL","NULL","0.0","NULL","NULL","NULL","NULL","NULL","NULL","NULL","NULL"
"168","103.745983719","1.32121263809","NULL","0","Calvary Pandan Kindergarten","397","NULL","NULL","NULL","NULL","NULL","609337","201 Pandan Gardens","Kindergartens","NULL","NULL","NULL","NULL","NULL","NULL","NULL","NULL","NULL","NULL","NULL","NULL","NULL","NULL","NULL","NULL","NULL","NULL","NULL","NULL","NULL","0.0","NULL","NULL","NULL","NULL","NULL","NULL","NULL","NULL"
"169","103.739968204","1.32049455413","NULL","0","PCF SPARKLETOTS PRESCHOOL @ AYER RAJAH Blk 48 (KN","446","NULL","NULL","NULL","NULL","NULL","600048","48 Teban Gardens Road #01-248","Kindergartens","NULL","NULL","NULL","NULL","NULL","NULL","NULL","NULL","NULL","NULL","NULL","NULL","NULL","NULL","NULL","NULL","NULL","NULL","NULL","NULL","NULL","0.0","NULL","NULL","NULL","NULL","NULL","NULL","NULL","NULL"
"170","103.742841777","1.34555899399","NULL","0","PCF SPARKLETOTS PRESCHOOL @ BUKIT BATOK Blk 180 (KN","461","NULL","NULL","NULL","NULL","NULL","650180","180 Bukit Batok West Avenue 8 #01-181","Kindergartens","NULL","NULL","NULL","NULL","NULL","NULL","NULL","NULL","NULL","NULL","NULL","NULL","NULL","NULL","NULL","NULL","NULL","NULL","NULL","NULL","NULL","0.0","NULL","NULL","NULL","NULL","NULL","NULL","NULL","NULL"
"171","103.746604061","1.33788840387","NULL","0","PCF SPARKLETOTS PRESCHOOL @ BUKIT BATOK EAST Blk 285C (KN","464","NULL","NULL","NULL","NULL","NULL","603285","285C Toh Guan Road #01-92","Kindergartens","NULL","NULL","NULL","NULL","NULL","NULL","NULL","NULL","NULL","NULL","NULL","NULL","NULL","NULL","NULL","NULL","NULL","NULL","NULL","NULL","NULL","0.0","NULL","NULL","NULL","NULL","NULL","NULL","NULL","NULL"
"172","103.738221333","1.32169538079","NULL","0","Hasanah Mosque Kindergarten","476","NULL","NULL","NULL","NULL","NULL","608878","492 Teban Gardens Road","Kindergartens","NULL","NULL","NULL","NULL","NULL","NULL","NULL","NULL","NULL","NULL","NULL","NULL","NULL","NULL","NULL","NULL","NULL","NULL","NULL","NULL","NULL","0.0","NULL","NULL","NULL","NULL","NULL","NULL","NULL","NULL"
"173","103.738395324","1.33568088822","NULL","0","Seventh-day Adventist Kindergarten","495","NULL","NULL","NULL","NULL","NULL","609648","90 Jurong East Street 13","Kindergartens","NULL","NULL","NULL","NULL","NULL","NULL","NULL","NULL","NULL","NULL","NULL","NULL","NULL","NULL","NULL","NULL","NULL","NULL","NULL","NULL","NULL","0.0","NULL","NULL","NULL","NULL","NULL","NULL","NULL","NULL"
"174","103.741457129","1.33921051395","NULL","0","Al - Mukminin Mosque Kindergarten","517","NULL","NULL","NULL","NULL","NULL","609603","271 Jurong East Street 21","Kindergartens","NULL","NULL","NULL","NULL","NULL","NULL","NULL","NULL","NULL","NULL","NULL","NULL","NULL","NULL","NULL","NULL","NULL","NULL","NULL","NULL","NULL","0.0","NULL","NULL","NULL","NULL","NULL","NULL","NULL","NULL"
"175","103.730960841","1.33893733684","NULL","1","Chinese Garden","0","NULL","NULL","NULL","NULL","NULL","NULL","NULL","NULL","NULL","NULL","NULL","NULL","NULL","NULL","NULL","NULL","NULL","NULL","NULL","NULL","NULL","NULL","NULL","NULL","NULL","NULL","NULL","NULL","NULL","0.0","NULL","NULL","NULL","NULL","NULL","NULL","NULL","NULL"
"176","103.731445706","1.33531609137","NULL","2","Japanese Garden","0","NULL","NULL","NULL","NULL","NULL","NULL","NULL","NULL","NULL","NULL","NULL","NULL","NULL","NULL","NULL","NULL","NULL","NULL","NULL","NULL","NULL","NULL","NULL","NULL","NULL","NULL","NULL","NULL","NULL","0.0","NULL","NULL","NULL","NULL","NULL","NULL","NULL","NULL"
"177","103.736103753","1.33650394314","NULL","0","NULL","8","NULL","NULL","65 Jurong East Street 13","NULL","NULL","NULL","NULL","NULL","NULL","NULL","NULL","NULL","NULL","NULL","NULL","NULL","NULL","NULL","NULL","NULL","NULL","NULL","NULL","NULL","NULL","NULL","NULL","NULL","NULL","0.0","NULL","NULL","NULL","NULL","NULL","https://www.myactivesg.com/facilities","Free To Play Field","Fuhua Primary School"
"178","103.739470069","1.34034339377","NULL","0","NULL","98","NULL","NULL","450 Jurong East Street 21","NULL","NULL","NULL","NULL","NULL","NULL","NULL","NULL","NULL","NULL","NULL","NULL","NULL","NULL","NULL","NULL","NULL","NULL","NULL","NULL","NULL","NULL","NULL","NULL","NULL","NULL","0.0","NULL","NULL","NULL","NULL","NULL","https://www.myactivesg.com/facilities/school-facilities/shuqun-secondary-school-field","Chargeable Field, Indoor Sports Hall","Shuqun Secondary School"
"179","103.742543062","1.34355501496","NULL","0","NULL","132","NULL","NULL","561 Jurong East Street 24","NULL","NULL","NULL","NULL","NULL","NULL","NULL","NULL","NULL","NULL","NULL","NULL","NULL","NULL","NULL","NULL","NULL","NULL","NULL","NULL","NULL","NULL","NULL","NULL","NULL","NULL","0.0","NULL","NULL","NULL","NULL","NULL","https://www.myactivesg.com/facilities/school-facilities","Indoor Sports Hall, Outdoor Basketball Court, St","Crest Secondary School"
"180","103.740918211","1.34272599797","NULL","0","NULL","157","NULL","NULL","158 Jurong East Street 24","NULL","NULL","NULL","NULL","NULL","NULL","NULL","NULL","NULL","NULL","NULL","NULL","NULL","NULL","NULL","NULL","NULL","NULL","NULL","NULL","NULL","NULL","NULL","NULL","NULL","NULL","0.0","NULL","NULL","NULL","NULL","NULL","https://www.myactivesg.com/facilities","Free To Play Field","Yuhua Primary School"
